OBJECT_NAME,OBJECT_ID,EPOCH,MEAN_MOTION,ECCENTRICITY,INCLINATION,RA_OF_ASC_NODE,ARG_OF_PERICENTER,MEAN_ANOMALY,EPHEMERIS_TYPE,CLASSIFICATION_TYPE,NORAD_CAT_ID,ELEMENT_SET_NO,REV_AT_EPOCH,BSTAR,MEAN_MOTION_DOT,MEAN_MOTION_DDOT
STARLINK-31177,2024-019W,2024-02-16T06:00:00.999648,15.48889724,0.0002381,42.9996,171.9385,259.6324,355.6371,0,U,58873,999,408,0.00047731,0.00026131,0
STARLINK-30945,2024-019X,2024-02-16T06:00:00.999648,15.51847088,0.0001535,42.9995,171.5468,273.8497,138.8711,0,U,58874,999,408,-0.031078,-0.01704555,0
STARLINK-31212,2024-019Y,2024-02-16T06:00:00.999648,15.48931607,0.000251,42.9997,171.9344,260.9819,355.9973,0,U,58875,999,392,-0.0015101,-0.00083032,0
STARLINK-31306,2024-020A,2024-02-16T06:00:00.999648,15.52101869,0.0001243,53.1609,217.3794,96.8576,136.3591,0,U,58876,999,403,-0.031377,-0.01720782,0
STARLINK-31326,2024-020B,2024-02-16T06:00:00.999648,15.52100383,0.0001251,53.1609,217.3778,98.2065,135.864,0,U,58877,999,403,-0.031377,-0.01720703,0
STARLINK-31300,2024-020C,2024-02-16T06:00:00.999648,15.52098464,0.0001211,53.1608,217.3757,104.3656,130.5588,0,U,58878,999,404,-0.031352,-0.01719352,0
STARLINK-31296,2024-020D,2024-02-16T06:00:00.999648,15.52097971,0.0001136,53.1608,217.3742,97.9983,137.7797,0,U,58879,999,403,-0.031389,-0.01721099,0
STARLINK-31328,2024-020E,2024-02-16T01:59:55.237344,15.78447177,0.0001946,53.1684,217.4954,61.3497,298.772,0,U,58880,999,402,-0.00013589,-0.0002462,0
STARLINK-31260,2024-020F,2024-02-16T06:00:00.999648,15.52093697,0.0001329,53.1609,217.3705,94.2053,143.2808,0,U,58881,999,403,-0.031355,-0.01719292,0
STARLINK-31323,2024-020G,2024-02-16T06:00:00.999648,15.52093974,0.0001206,53.161,217.3681,99.3201,139.0195,0,U,58882,999,388,-0.031397,-0.01721302,0
STARLINK-31209,2024-020H,2024-02-16T06:00:00.999648,15.52091711,0.0001061,53.161,217.367,94.7815,144.4124,0,U,58883,999,392,-0.031388,-0.01720664,0
STARLINK-31315,2024-020J,2024-02-15T22:00:00.999936,15.77832179,8.2e-05,53.1599,217.7271,53.1458,12.1817,0,U,58884,999,385,-0.0035552,-0.0057252,0
STARLINK-31318,2024-020K,2024-02-16T06:00:00.999648,15.57663604,9.07e-05,53.1599,217.0066,96.0373,321.1011,0,U,58885,999,387,-0.025684,-0.01729693,0
STARLINK-31320,2024-020L,2024-02-16T06:00:00.999648,15.52085967,9.62e-05,53.1609,217.3614,81.6466,160.11,0,U,58886,999,403,-0.031353,-0.01718582,0
STARLINK-31321,2024-020M,2024-02-16T06:00:00.999648,15.5208377,8.42e-05,53.161,217.3575,81.6324,161.8315,0,U,58887,999,387,-0.031366,-0.01719039,0
STARLINK-30970,2024-020N,2024-02-16T06:00:00.999648,15.5208675,0.0001259,53.1609,217.3595,95.1591,147.4498,0,U,58888,999,403,-0.031417,-0.01721905,0
STARLINK-31007,2024-020P,2024-02-16T06:00:00.999648,15.52083617,0.0001196,53.1609,217.356,87.732,156.5848,0,U,58889,999,404,-0.031421,-0.01721895,0
STARLINK-31230,2024-020Q,2024-02-16T06:00:00.999648,15.5208102,9.34e-05,53.161,217.3543,85.6542,159.5173,0,U,58890,999,392,-0.031372,-0.01719223,0
STARLINK-31245,2024-020R,2024-02-16T04:41:18.063744,15.91784903,0.0001653,53.1611,216.0245,242.6783,117.4076,0,U,58891,999,404,0.00031473,0.0010237,1.5033e-05
STARLINK-31254,2024-020S,2024-02-16T06:00:00.999648,15.52077789,9.74e-05,53.1609,217.3506,82.3687,164.5108,0,U,58892,999,403,-0.031371,-0.01719014,0
STARLINK-31255,2024-020T,2024-02-16T06:00:00.999648,15.52078531,0.000122,53.1609,217.3489,97.862,149.8695,0,U,58893,999,403,-0.031428,-0.01721966,0
STARLINK-31243,2024-020U,2024-02-16T04:00:00.999936,15.52413259,0.0001155,53.1607,217.7478,59.9649,82.6776,0,U,58894,999,375,-0.031818,-0.01759952,0
STARLINK-31218,2024-020V,2024-02-16T06:00:00.999648,15.52074025,0.0001017,53.161,217.3453,92.07,157.3699,0,U,58895,999,392,-0.031392,-0.01719853,0
STARLINK-31221,2024-020W,2024-02-16T06:00:00.999648,15.52072961,9.29e-05,53.1609,217.3436,90.9916,159.3023,0,U,58896,999,392,-0.031382,-0.01719262,0
STARLINK-31190,2024-020X,2024-02-16T06:00:00.999648,15.52071908,0.0001086,53.161,217.3417,97.2481,153.8992,0,U,58897,999,376,-0.031411,-0.01720698,0
CYGNUS NG-20,2024-021A,2024-02-15T11:06:57.226176,15.49947145,0.000194,51.6374,203.5479,264.852,95.2248,0,U,58898,999,43952,0.00036486,0.00020382,0
LEMUR-2-NIMBUS2000,2024-022A,2024-02-15T12:37:56.097408,15.11945663,0.001485,97.4893,249.1853,237.6446,122.3347,0,U,58899,999,230,0.00059541,0.00010176,0
LEMUR-2-VALHALLA,2024-022B,2024-02-16T02:53:24.803808,15.12102951,0.0015341,97.4893,249.7713,232.7791,127.2041,0,U,58900,999,239,0.00066837,0.00011485,0
2024-022C,2024-022C,2024-02-16T02:50:29.071392,15.12344679,0.0014226,97.4903,249.774,229.082,130.918,0,U,58901,999,238,0.00083678,0.00014493,0
LEMUR-2-OBA-NI-JESU,2024-022D,2024-02-15T12:30:16.401024,15.12464861,0.0012372,97.4887,249.1903,220.0466,139.9853,0,U,58902,999,230,0.00063702,0.00011043,0
