CYGNUS NG-20            
1 58898U 24021A   24046.46316234  .00020382  00000+0  36486-3 0  9996
2 58898  51.6374 203.5479 0001940 264.8520  95.2248 15.49947145439529
STARLINK-31177          
1 58873U 24019W   24047.25001157  .00026131  00000+0  47731-3 0  9992
2 58873  42.9996 171.9385 0002381 259.6324 355.6371 15.48889724  4089
STARLINK-30945          
1 58874U 24019X   24047.25001157 -.01704555  00000+0 -31078-1 0  9994
2 58874  42.9995 171.5468 0001535 273.8497 138.8711 15.51847088  4086
STARLINK-31212          
1 58875U 24019Y   24047.25001157 -.00083032  00000+0 -15101-2 0  9994
2 58875  42.9997 171.9344 0002510 260.9819 355.9973 15.48931607  3926
STARLINK-31306          
1 58876U 24020A   24047.25001157 -.01720782  00000+0 -31377-1 0  9990
2 58876  53.1609 217.3794 0001243  96.8576 136.3591 15.52101869  4037
STARLINK-31326          
1 58877U 24020B   24047.25001157 -.01720703  00000+0 -31377-1 0  9994
2 58877  53.1609 217.3778 0001251  98.2065 135.8640 15.52100383  4037
STARLINK-31300          
1 58878U 24020C   24047.25001157 -.01719352  00000+0 -31352-1 0  9996
2 58878  53.1608 217.3757 0001211 104.3656 130.5588 15.52098464  4045
STARLINK-31296          
1 58879U 24020D   24047.25001157 -.01721099  00000+0 -31389-1 0  9998
2 58879  53.1608 217.3742 0001136  97.9983 137.7797 15.52097971  4038
STARLINK-31328          
1 58880U 24020E   24047.08327821 -.00024620  00000+0 -13589-3 0  9999
2 58880  53.1684 217.4954 0001946  61.3497 298.7720 15.78447177  4022
STARLINK-31260          
1 58881U 24020F   24047.25001157 -.01719292  00000+0 -31355-1 0  9996
2 58881  53.1609 217.3705 0001329  94.2053 143.2808 15.52093697  4039
STARLINK-31323          
1 58882U 24020G   24047.25001157 -.01721302  00000+0 -31397-1 0  9998
2 58882  53.1610 217.3681 0001206  99.3201 139.0195 15.52093974  3882
STARLINK-31209          
1 58883U 24020H   24047.25001157 -.01720664  00000+0 -31388-1 0  9999
2 58883  53.1610 217.3670 0001061  94.7815 144.4124 15.52091711  3924
STARLINK-31315          
1 58884U 24020J   24046.91667824 -.00572520  00000+0 -35552-2 0  9994
2 58884  53.1599 217.7271 0000820  53.1458  12.1817 15.77832179  3856
STARLINK-31318          
1 58885U 24020K   24047.25001157 -.01729693  00000+0 -25684-1 0  9994
2 58885  53.1599 217.0066 0000907  96.0373 321.1011 15.57663604  3874
STARLINK-31320          
1 58886U 24020L   24047.25001157 -.01718582  00000+0 -31353-1 0  9990
2 58886  53.1609 217.3614 0000962  81.6466 160.1100 15.52085967  4037
STARLINK-31321          
1 58887U 24020M   24047.25001157 -.01719039  00000+0 -31366-1 0  9993
2 58887  53.1610 217.3575 0000842  81.6324 161.8315 15.52083770  3873
STARLINK-30970          
1 58888U 24020N   24047.25001157 -.01721905  00000+0 -31417-1 0  9996
2 58888  53.1609 217.3595 0001259  95.1591 147.4498 15.52086750  4035
STARLINK-31007          
1 58889U 24020P   24047.25001157 -.01721895  00000+0 -31421-1 0  9990
2 58889  53.1609 217.3560 0001196  87.7320 156.5848 15.52083617  4045
STARLINK-31230          
1 58890U 24020Q   24047.25001157 -.01719223  00000+0 -31372-1 0  9999
2 58890  53.1610 217.3543 0000934  85.6542 159.5173 15.52081020  3928
STARLINK-31245          
1 58891U 24020R   24047.19534796  .00102370  15033-4  31473-3 0  9990
2 58891  53.1611 216.0245 0001653 242.6783 117.4076 15.91784903  4048
STARLINK-31254          
1 58892U 24020S   24047.25001157 -.01719014  00000+0 -31371-1 0  9998
2 58892  53.1609 217.3506 0000974  82.3687 164.5108 15.52077789  4039
STARLINK-31255          
1 58893U 24020T   24047.25001157 -.01721966  00000+0 -31428-1 0  9991
2 58893  53.1609 217.3489 0001220  97.8620 149.8695 15.52078531  4036
STARLINK-31243          
1 58894U 24020U   24047.16667824 -.01759952  00000+0 -31818-1 0  9990
2 58894  53.1607 217.7478 0001155  59.9649  82.6776 15.52413259  3756
STARLINK-31218          
1 58895U 24020V   24047.25001157 -.01719853  00000+0 -31392-1 0  9995
2 58895  53.1610 217.3453 0001017  92.0700 157.3699 15.52074025  3920
STARLINK-31221          
1 58896U 24020W   24047.25001157 -.01719262  00000+0 -31382-1 0  9999
2 58896  53.1609 217.3436 0000929  90.9916 159.3023 15.52072961  3927
STARLINK-31190          
1 58897U 24020X   24047.25001157 -.01720698  00000+0 -31411-1 0  9998
2 58897  53.1610 217.3417 0001086  97.2481 153.8992 15.52071908  3767
LEMUR-2-NIMBUS2000      
1 58899U 24022A   24046.52634372  .00010176  00000+0  59541-3 0  9998
2 58899  97.4893 249.1853 0014850 237.6446 122.3347 15.11945663  2301
LEMUR-2-VALHALLA        
1 58900U 24022B   24047.12042597  .00011485  00000+0  66837-3 0  9990
2 58900  97.4893 249.7713 0015341 232.7791 127.2041 15.12102951  2390
2024-022C               
1 58901U 24022C   24047.11839203  .00014493  00000+0  83678-3 0  9992
2 58901  97.4903 249.7740 0014226 229.0820 130.9180 15.12344679  2385
LEMUR-2-OBA-NI-JESU     
1 58902U 24022D   24046.52102316  .00011043  00000+0  63702-3 0  9999
2 58902  97.4887 249.1903 0012372 220.0466 139.9853 15.12464861  2303
